[{"OBJECT_NAME":"STARLINK-35257","OBJECT_ID":"2025-253N","EPOCH":"2026-01-19T16:30:50.993280","MEAN_MOTION":15.27597356,"ECCENTRICITY":0.00014593,"INCLINATION":43.0031,"RA_OF_ASC_NODE":128.9528,"ARG_OF_PERICENTER":264.02,"MEAN_ANOMALY":96.0485,"EPHEMERIS_TYPE":0,"CLASSIFICATION_TYPE":"U","NORAD_CAT_ID":66331,"ELEMENT_SET_NO":999,"REV_AT_EPOCH":1275,"BSTAR":0.00090458934,"MEAN_MOTION_DOT":0.00024727,"MEAN_MOTION_DDOT":0},{"OBJECT_NAME":"STARLINK-35322","OBJECT_ID":"2025-253P","EPOCH":"2026-01-19T16:45:38.984832","MEAN_MOTION":15.27601448,"ECCENTRICITY":0.00019602,"INCLINATION":43.0028,"RA_OF_ASC_NODE":129.0377,"ARG_OF_PERICENTER":275.5318,"MEAN_ANOMALY":84.531,"EPHEMERIS_TYPE":0,"CLASSIFICATION_TYPE":"U","NORAD_CAT_ID":66332,"ELEMENT_SET_NO":999,"REV_AT_EPOCH":1275,"BSTAR":0.00084200858,"MEAN_MOTION_DOT":0.00022996,"MEAN_MOTION_DDOT":0},{"OBJECT_NAME":"STARLINK-35400","OBJECT_ID":"2025-253Q","EPOCH":"2026-01-19T16:16:15.606624","MEAN_MOTION":15.27577195,"ECCENTRICITY":0.00013742,"INCLINATION":43.0021,"RA_OF_ASC_NODE":129.7432,"ARG_OF_PERICENTER":274.9562,"MEAN_ANOMALY":85.1133,"EPHEMERIS_TYPE":0,"CLASSIFICATION_TYPE":"U","NORAD_CAT_ID":66333,"ELEMENT_SET_NO":999,"REV_AT_EPOCH":1274,"BSTAR":0.0010325793,"MEAN_MOTION_DOT":0.00028259,"MEAN_MOTION_DDOT":0},{"OBJECT_NAME":"STARLINK-35407","OBJECT_ID":"2025-253R","EPOCH":"2026-01-19T16:34:32.859840","MEAN_MOTION":15.27595763,"ECCENTRICITY":0.00018924,"INCLINATION":43.0022,"RA_OF_ASC_NODE":128.979,"ARG_OF_PERICENTER":266.925,"MEAN_ANOMALY":93.1385,"EPHEMERIS_TYPE":0,"CLASSIFICATION_TYPE":"U","NORAD_CAT_ID":66334,"ELEMENT_SET_NO":999,"REV_AT_EPOCH":1275,"BSTAR":0.00057228054,"MEAN_MOTION_DOT":0.00015527,"MEAN_MOTION_DDOT":0},{"OBJECT_NAME":"STARLINK-35417","OBJECT_ID":"2025-253S","EPOCH":"2026-01-19T17:06:01.559520","MEAN_MOTION":15.27600443,"ECCENTRICITY":0.00019147,"INCLINATION":43.0001,"RA_OF_ASC_NODE":129.1432,"ARG_OF_PERICENTER":271.5621,"MEAN_ANOMALY":88.5012,"EPHEMERIS_TYPE":0,"CLASSIFICATION_TYPE":"U","NORAD_CAT_ID":66335,"ELEMENT_SET_NO":999,"REV_AT_EPOCH":1275,"BSTAR":0.0010116695,"MEAN_MOTION_DOT":0.00027699,"MEAN_MOTION_DDOT":0},{"OBJECT_NAME":"STARLINK-35404","OBJECT_ID":"2025-253T","EPOCH":"2026-01-19T16:53:04.413984","MEAN_MOTION":15.27607171,"ECCENTRICITY":0.00015636,"INCLINATION":43.001,"RA_OF_ASC_NODE":129.0692,"ARG_OF_PERICENTER":273.4343,"MEAN_ANOMALY":86.633,"EPHEMERIS_TYPE":0,"CLASSIFICATION_TYPE":"U","NORAD_CAT_ID":66336,"ELEMENT_SET_NO":999,"REV_AT_EPOCH":1275,"BSTAR":0.00085435492,"MEAN_MOTION_DOT":0.00023342,"MEAN_MOTION_DDOT":0},{"OBJECT_NAME":"STARLINK-34783","OBJECT_ID":"2025-253U","EPOCH":"2026-01-19T16:14:24.597312","MEAN_MOTION":15.27598003,"ECCENTRICITY":0.00013049,"INCLINATION":43.0006,"RA_OF_ASC_NODE":129.7373,"ARG_OF_PERICENTER":265.4373,"MEAN_ANOMALY":94.633,"EPHEMERIS_TYPE":0,"CLASSIFICATION_TYPE":"U","NORAD_CAT_ID":66337,"ELEMENT_SET_NO":999,"REV_AT_EPOCH":1274,"BSTAR":0.00096309221,"MEAN_MOTION_DOT":0.00026349,"MEAN_MOTION_DDOT":0},{"OBJECT_NAME":"STARLINK-35477","OBJECT_ID":"2025-253V","EPOCH":"2026-01-19T16:51:12.215808","MEAN_MOTION":15.27604984,"ECCENTRICITY":0.00020912,"INCLINATION":43.0016,"RA_OF_ASC_NODE":129.0662,"ARG_OF_PERICENTER":278.1551,"MEAN_ANOMALY":81.9064,"EPHEMERIS_TYPE":0,"CLASSIFICATION_TYPE":"U","NORAD_CAT_ID":66338,"ELEMENT_SET_NO":999,"REV_AT_EPOCH":1275,"BSTAR":0.00092318959,"MEAN_MOTION_DOT":0.00025249,"MEAN_MOTION_DDOT":0},{"OBJECT_NAME":"STARLINK-35443","OBJECT_ID":"2025-253W","EPOCH":"2026-01-19T17:00:27.213120","MEAN_MOTION":15.27611592,"ECCENTRICITY":0.00015421,"INCLINATION":43.0003,"RA_OF_ASC_NODE":129.1084,"ARG_OF_PERICENTER":285.7041,"MEAN_ANOMALY":74.364,"EPHEMERIS_TYPE":0,"CLASSIFICATION_TYPE":"U","NORAD_CAT_ID":66339,"ELEMENT_SET_NO":999,"REV_AT_EPOCH":1275,"BSTAR":0.00093708584,"MEAN_MOTION_DOT":0.00025639,"MEAN_MOTION_DDOT":0},{"OBJECT_NAME":"STARLINK-35218","OBJECT_ID":"2025-253X","EPOCH":"2026-01-19T15:59:36.098592","MEAN_MOTION":15.27605611,"ECCENTRICITY":0.00014835,"INCLINATION":43,"RA_OF_ASC_NODE":129.648,"ARG_OF_PERICENTER":273.4065,"MEAN_ANOMALY":86.6616,"EPHEMERIS_TYPE":0,"CLASSIFICATION_TYPE":"U","NORAD_CAT_ID":66340,"ELEMENT_SET_NO":999,"REV_AT_EPOCH":1274,"BSTAR":0.0012228573,"MEAN_MOTION_DOT":0.00033568,"MEAN_MOTION_DDOT":0},{"OBJECT_NAME":"STARLINK-35522","OBJECT_ID":"2025-253Y","EPOCH":"2026-01-19T15:44:48.113952","MEAN_MOTION":15.27604914,"ECCENTRICITY":0.0001144,"INCLINATION":43.0026,"RA_OF_ASC_NODE":129.5816,"ARG_OF_PERICENTER":284.6081,"MEAN_ANOMALY":75.4644,"EPHEMERIS_TYPE":0,"CLASSIFICATION_TYPE":"U","NORAD_CAT_ID":66341,"ELEMENT_SET_NO":999,"REV_AT_EPOCH":1274,"BSTAR":0.00053801634,"MEAN_MOTION_DOT":0.00014583,"MEAN_MOTION_DDOT":0},{"OBJECT_NAME":"STARLINK-35535","OBJECT_ID":"2025-253Z","EPOCH":"2026-01-19T14:03:13.349952","MEAN_MOTION":15.2763519,"ECCENTRICITY":0.00012769,"INCLINATION":43,"RA_OF_ASC_NODE":129.906,"ARG_OF_PERICENTER":296.7349,"MEAN_ANOMALY":63.3372,"EPHEMERIS_TYPE":0,"CLASSIFICATION_TYPE":"U","NORAD_CAT_ID":66342,"ELEMENT_SET_NO":999,"REV_AT_EPOCH":1273,"BSTAR":0.0011426256,"MEAN_MOTION_DOT":0.00031367,"MEAN_MOTION_DDOT":0},{"OBJECT_NAME":"STARLINK-35467","OBJECT_ID":"2025-253AA","EPOCH":"2026-01-19T15:54:03.334176","MEAN_MOTION":15.27595203,"ECCENTRICITY":0.00014134,"INCLINATION":42.9958,"RA_OF_ASC_NODE":129.6232,"ARG_OF_PERICENTER":267.4124,"MEAN_ANOMALY":92.6565,"EPHEMERIS_TYPE":0,"CLASSIFICATION_TYPE":"U","NORAD_CAT_ID":66343,"ELEMENT_SET_NO":999,"REV_AT_EPOCH":1274,"BSTAR":0.00088476537,"MEAN_MOTION_DOT":0.00024176,"MEAN_MOTION_DDOT":0},{"OBJECT_NAME":"STARLINK-35511","OBJECT_ID":"2025-253AB","EPOCH":"2026-01-19T16:21:35.590752","MEAN_MOTION":15.27603833,"ECCENTRICITY":0.0002092,"INCLINATION":43.0035,"RA_OF_ASC_NODE":128.902,"ARG_OF_PERICENTER":277.2191,"MEAN_ANOMALY":82.8423,"EPHEMERIS_TYPE":0,"CLASSIFICATION_TYPE":"U","NORAD_CAT_ID":66344,"ELEMENT_SET_NO":999,"REV_AT_EPOCH":1275,"BSTAR":0.0011575936,"MEAN_MOTION_DOT":0.00031753,"MEAN_MOTION_DDOT":0},{"OBJECT_NAME":"STARLINK-35440","OBJECT_ID":"2025-253AC","EPOCH":"2026-01-19T15:39:14.877792","MEAN_MOTION":15.27596589,"ECCENTRICITY":0.00012799,"INCLINATION":43.0003,"RA_OF_ASC_NODE":129.544,"ARG_OF_PERICENTER":261.3813,"MEAN_ANOMALY":98.6894,"EPHEMERIS_TYPE":0,"CLASSIFICATION_TYPE":"U","NORAD_CAT_ID":66345,"ELEMENT_SET_NO":999,"REV_AT_EPOCH":1274,"BSTAR":0.00048125462,"MEAN_MOTION_DOT":0.00013011,"MEAN_MOTION_DDOT":0},{"OBJECT_NAME":"STARLINK-35482","OBJECT_ID":"2025-253AD","EPOCH":"2026-01-19T16:41:56.798592","MEAN_MOTION":15.27597133,"ECCENTRICITY":0.00015363,"INCLINATION":43.0008,"RA_OF_ASC_NODE":129.0083,"ARG_OF_PERICENTER":250.7156,"MEAN_ANOMALY":109.353,"EPHEMERIS_TYPE":0,"CLASSIFICATION_TYPE":"U","NORAD_CAT_ID":66346,"ELEMENT_SET_NO":999,"REV_AT_EPOCH":1275,"BSTAR":0.00061380941,"MEAN_MOTION_DOT":0.00016676,"MEAN_MOTION_DDOT":0}]
