STARLINK-35257          
1 66331U 25253N   26019.68809020  .00024727  00000+0  90459-3 0  9998
2 66331  43.0031 128.9528 0001459 264.0200  96.0485 15.27597356 12757
STARLINK-35322          
1 66332U 25253P   26019.69836788  .00022996  00000+0  84201-3 0  9995
2 66332  43.0028 129.0377 0001960 275.5318  84.5310 15.27601448 12759
STARLINK-35400          
1 66333U 25253Q   26019.67795841  .00028259  00000+0  10326-2 0  9992
2 66333  43.0021 129.7432 0001374 274.9562  85.1133 15.27577195 12745
STARLINK-35407          
1 66334U 25253R   26019.69065810  .00015527  00000+0  57228-3 0  9998
2 66334  43.0022 128.9790 0001892 266.9250  93.1385 15.27595763 12755
STARLINK-35417          
1 66335U 25253S   26019.71251805  .00027699  00000+0  10117-2 0  9991
2 66335  43.0001 129.1432 0001914 271.5621  88.5012 15.27600443 12755
STARLINK-35404          
1 66336U 25253T   26019.70352331  .00023342  00000+0  85435-3 0  9994
2 66336  43.0010 129.0692 0001563 273.4343  86.6330 15.27607171 12752
STARLINK-34783          
1 66337U 25253U   26019.67667358  .00026349  00000+0  96309-3 0  9991
2 66337  43.0006 129.7373 0001304 265.4373  94.6330 15.27598003 12749
STARLINK-35477          
1 66338U 25253V   26019.70222472  .00025249  00000+0  92319-3 0  9995
2 66338  43.0016 129.0662 0002091 278.1551  81.9064 15.27604984 12758
STARLINK-35443          
1 66339U 25253W   26019.70864830  .00025639  00000+0  93709-3 0  9993
2 66339  43.0003 129.1084 0001542 285.7041  74.3640 15.27611592 12751
STARLINK-35218          
1 66340U 25253X   26019.66639003  .00033568  00000+0  12229-2 0  9999
2 66340  43.0000 129.6480 0001483 273.4065  86.6616 15.27605611 12742
STARLINK-35522          
1 66341U 25253Y   26019.65611243  .00014583  00000+0  53802-3 0  9994
2 66341  43.0026 129.5816 0001144 284.6081  75.4644 15.27604914 12741
STARLINK-35535          
1 66342U 25253Z   26019.58557118  .00031367  00000+0  11426-2 0  9991
2 66342  43.0000 129.9060 0001276 296.7349  63.3372 15.27635190 12739
STARLINK-35467          
1 66343U 25253AA  26019.66253859  .00024176  00000+0  88477-3 0  9997
2 66343  42.9958 129.6232 0001413 267.4124  92.6565 15.27595203 12747
STARLINK-35511          
1 66344U 25253AB  26019.68166193  .00031753  00000+0  11576-2 0  9998
2 66344  43.0035 128.9020 0002092 277.2191  82.8423 15.27603833 12754
STARLINK-35440          
1 66345U 25253AC  26019.65225553  .00013011  00000+0  48125-3 0  9990
2 66345  43.0003 129.5440 0001279 261.3813  98.6894 15.27596589 12749
STARLINK-35482          
1 66346U 25253AD  26019.69579628  .00016676  00000+0  61381-3 0  9999
2 66346  43.0008 129.0083 0001536 250.7156 109.3530 15.27597133 12755
